#aV2008  5  3  0  0   .00000000      96 DD+AD WGS84 FIT  NGA
## 1477 518400.00000000   900.00000000 54589  .0000000000000
+   31     2  3  4  5  6  7  8  9 10 11 12 13 14 15 16 17 18
+         19 20 21 22 23 24 25 26 27 28 29 30 31 32  0  0  0
+          0  0  0  0  0  0  0  0  0  0  0  0  0  0  0  0  0
+          0  0  0  0  0  0  0  0  0  0  0  0  0  0  0  0  0
+          0  0  0  0  0  0  0  0  0  0  0  0  0  0  0  0  0
++         0  0  0  0  0  0  0  0  0  0  0  0  0  0  0  0  0
++         0  0  0  0  0  0  0  0  0  0  0  0  0  0  0  0  0
++         0  0  0  0  0  0  0  0  0  0  0  0  0  0  0  0  0
++         0  0  0  0  0  0  0  0  0  0  0  0  0  0  0  0  0
++         0  0  0  0  0  0  0  0  0  0  0  0  0  0  0  0  0
%c cc cc ccc ccc cccc cccc cccc cccc ccccc ccccc ccccc ccccc
%c cc cc ccc ccc cccc cccc cccc cccc ccccc ccccc ccccc ccccc
%f  0.0000000  0.000000000  0.00000000000  0.000000000000000
%f  0.0000000  0.000000000  0.00000000000  0.000000000000000
%i    0    0    0    0      0      0      0      0         0
%i    0    0    0    0      0      0      0      0         0
/*      NGA, ST. LOUIS,MO.                                  
/*   EPHEMERIS COMPUTED FROM  3 DAYS OF DATA                
/* CCCCCCCCCCCCCCCCCCCCCCCCCCCCCCCCCCCCCCCCCCCCCCCCCCCCCCCCC
/* CCCCCCCCCCCCCCCCCCCCCCCCCCCCCCCCCCCCCCCCCCCCCCCCCCCCCCCCC
*  2008  5  3  9  0   .00000000                                                 
P  2 -12621.671553 -23414.387463   2691.617380    198.501823                    
V  2   4487.530615   1394.201362  30908.045898       .057914                    
P  3  14317.969329  12411.667104 -18993.725433    222.890784                    
V  3 -23156.618251   4837.864215 -14136.733238       .052800                    
P  4  -3097.297265 -22836.617808  12785.895383    -59.077223                    
V  4  11195.712235  12575.736635  25342.147796      -.082133                    
P  5 -17451.076024   6798.507014  18509.943964    763.710691                    
V  5   7656.411132 -23001.734826  15586.938284       .087092                    
P  6   -197.547208  15766.322545 -21213.365099    117.534728                    
V  6 -27366.799535   1889.008178   1615.905151       .102013                    
P  7  14416.230927  -5423.040489 -21669.040953    -52.920166                    
V  7  14301.654037  23423.153056   3593.093706       .101903                    
P  8   5436.395425 -17040.334756 -19552.302667   -151.391634                    
V  8  13052.015556  21057.720782 -15241.421283      -.017053                    
P  9 -19154.689738 -10439.843793  14637.120451    122.774332                    
V  9  -9406.751816 -17312.602117 -23498.433508       .016694                    
P 10  -6019.304530 -16964.874400 -19554.227859     -1.220794                    
V 10  13289.612092 -20787.013680  14363.313516      -.003700                    
P 11  21262.701820   4873.667130  15205.650641     25.924886                    
V 11  11059.399832  16602.380872 -20250.458416      -.003676                    
P 12 -16761.032647    910.649814  20654.413846   -359.164443                    
V 12  11438.317948 -23402.762453  10450.847733      -.000310                    
P 13  23327.304961  -6760.857256 -10836.936933    253.534386                    
V 13  13528.535232   1636.760948  28431.754811       .017921                    
P 14  -8965.813568  13803.955967  20920.266285   -270.872459                    
V 14 -26289.141074   -525.887877 -11063.064361       .041035                    
P 15 -22266.188008  -7632.164609 -12291.505898   -105.648083                    
V 15  15517.828842  -3127.556402 -26115.122397      -.053608                    
P 16   1779.446237  20501.181654 -16603.623897    126.494495                    
V 16 -11977.021855  17710.447259  20683.816489      -.013227                    
P 17   8778.333840 -14522.278356  20432.156617     39.350251                    
V 17  25920.052355    455.470580 -10989.272503      -.002466                    
P 18 -17583.918978  17361.320784  -9065.739558   -181.645515                    
V 18   3145.278606 -11918.985151 -28730.150659       .036064                    
P 19  22458.412791   8720.101002 -11295.005562     28.889149                    
V 19 -14489.802539   1896.971715 -26959.050068       .009432                    
P 20  17486.767678  -3295.556752  19584.603027    115.185911                    
V 20 -10206.835334  23067.712978  12958.939503      -.008133                    
P 21 -11742.310052  10613.942985 -21095.503831     65.370968                    
V 21 -14542.450703 -23189.832419  -4150.725029      -.010488                    
P 22 -10756.645898  23951.799093   3975.676043    210.895861                    
V 22  -5298.444380   2546.438291 -30904.173744       .003518                    
P 23  26618.724760    443.535215   1873.802463    351.429470                    
V 23  -2371.972564   2350.994709  31711.952829       .023125                    
P 24 -17584.444057  -3337.514780 -19365.299682     91.024586                    
V 24 -10857.758841 -22641.390613  13917.667016       .028692                    
P 25  17726.283327   1111.324055 -19327.099364   -124.388877                    
V 25  14334.517683  20983.055967  14268.336731      -.274863                    
P 26 -19533.984086 -10360.448795 -15599.363360    245.117952                    
V 26  18663.917447   -592.050439 -23188.362424       .082936                    
P 27  12258.321563  -8153.982702 -21440.269861    185.718814                    
V 27  16732.740182  23459.922059    486.531453       .026706                    
P 28  11629.195359 -23605.847522   2171.579867    -18.553766                    
V 28   3757.197263   -539.031293 -31870.763743      -.003198                    
P 29 -25003.933121   5308.280307  -7044.243535    -43.420226                    
V 29  -9151.908163  -2610.392757  30033.612251       .003661                    
P 30 -17716.111110  13443.496853  14110.012462     74.705444                    
V 30   5716.150932 -17849.899886  23722.118561       .017506                    
P 31   4928.771398  23248.940500  11952.054212    -18.609144                    
V 31  -9804.759902 -11414.871128  26813.364545      -.013139                    
P 32   6355.588299  16189.542675  20564.336310    279.236931                    
V 32 -14242.296258  20639.924137 -11933.952019       .058526                    
EOF
